STARLINK-30231          
1 57514U 23113V   25353.95745579  .00000873  00000+0  79701-4 0  9996
2 57514  43.0036  90.8036 0001935 280.2486  79.8138 15.02554264131661
STARLINK-30081          
1 57515U 23113W   25353.54527022  .00001089  00000+0  95692-4 0  9990
2 57515  43.0028  92.8944 0001706 267.9024  92.1623 15.02527869131601
STARLINK-30149          
1 57516U 23113X   25354.00063235  .00000681  00000+0  65516-4 0  9993
2 57516  43.0042  90.2853 0001420 269.6835  90.3845 15.02533717131572
COSMOS 2569 [GLONASS-K2]
1 57517U 23114A   25353.52801347 -.00000027  00000+0  00000+0 0  9992
2 57517  65.1977  78.6841 0010771 287.0303  72.8809  2.13104046 18436
HJ-2F                   
1 57519U 23116A   25354.31428634  .00006582  00000+0  28655-3 0  9999
2 57519  97.3859 357.8291 0005035 285.9924  74.0757 15.22545925131552
STARLINK-30259          
1 57521U 23115A   25354.20042012 -.00000029  00000+0  12930-4 0  9992
2 57521  43.0042  76.9505 0001536 276.7350  83.3318 15.02533886131576
STARLINK-30256          
1 57522U 23115B   25353.59878847  .00001383  00000+0  11742-3 0  9999
2 57522  43.0032  80.1748 0001508 272.2682  87.7988 15.02532935130260
STARLINK-30261          
1 57523U 23115C   25353.92784898  .00000614  00000+0  60534-4 0  9999
2 57523  43.0037  78.3441 0001464 270.1584  89.9091 15.02533166130316
STARLINK-30260          
1 57524U 23115D   25353.92452095  .00000440  00000+0  47658-4 0  9990
2 57524  43.0041  78.3386 0001970 284.4416  75.6207 15.02533197130319
STARLINK-30253          
1 57525U 23115E   25354.24691671 -.00000263  00000+0 -43966-5 0  9996
2 57525  42.9980  76.4398 0000728 127.2940 232.7969 15.02534024130364
STARLINK-30257          
1 57526U 23115F   25353.65195105  .00000165  00000+0  27315-4 0  9990
2 57526  43.0035  79.7447 0001156 261.6021  98.4691 15.02534701130279
STARLINK-30250          
1 57527U 23115G   25354.24359016  .00000505  00000+0  52463-4 0  9990
2 57527  43.0033  76.4157 0001325 278.7716  81.2977 15.02536454131262
STARLINK-30269          
1 57528U 23115H   25353.29958314  .00000407  00000+0  45199-4 0  9990
2 57528  43.0048  81.4008 0002048 279.9012  80.1599 15.02534793130222
STARLINK-30266          
1 57529U 23115J   25354.22028349  .00000428  00000+0  46756-4 0  9994
2 57529  43.0041  76.2495 0001255 274.5746  85.4953 15.02529718130360
STARLINK-30270          
1 57530U 23115K   25353.96104411 -.00000200  00000+0  25279-6 0  9999
2 57530  43.0029  77.7561 0001382 277.6790  82.3895 15.02527268130327
STARLINK-30268          
1 57531U 23115L   25353.64196760  .00001531  00000+0  12842-3 0  9999
2 57531  43.0035  79.6614 0001525 269.5948  90.4720 15.02530298130277
STARLINK-30251          
1 57532U 23115M   25354.23471087  .00000615  00000+0  60590-4 0  9990
2 57532  43.0028  76.3556 0001150 277.0416  83.0296 15.02535018130368
STARLINK-30254          
1 57533U 23115N   25353.61492779  .00000993  00000+0  45609-4 0  9996
2 57533  43.0013 195.3824 0000771 267.3851  92.6913 15.27571589133114
STARLINK-30264          
1 57534U 23115P   25354.22493154  .00001097  00000+0  49406-4 0  9998
2 57534  43.0008 297.6706 0000942 260.0951  99.9794 15.27564647133209
2023-117C               
1 57582U 23117C   25354.27513639  .00014197  00000+0  45719-3 0  9996
2 57582  97.4275  68.8737 0008396 149.5073 210.6658 15.32281063131090
2023-117F               
1 57585U 23117F   25354.28616590  .00013066  00000+0  35804-3 0  9998
2 57585  97.4352  72.3680 0007964 141.7292 218.4520 15.37405087131298
STARLINK-30166          
1 57602U 23119A   25353.46415002  .00001006  00000+0  89516-4 0  9995
2 57602  43.0024 157.9008 0001384 260.0950  99.9736 15.02529679130950
STARLINK-30223          
1 57603U 23119B   25354.17542962 -.00000219  00000+0 -11305-5 0  9990
2 57603  43.0032 153.7690 0001288 263.8318  96.2378 15.02534119131119
STARLINK-30218          
1 57604U 23119C   25353.78322170  .00000191  00000+0  29179-4 0  9998
2 57604  43.0023 155.9921 0001313 263.2002  96.8691 15.02532872131066
STARLINK-30138          
1 57605U 23119D   25353.77990112  .00000640  00000+0  62450-4 0  9993
2 57605  43.0026 155.9705 0001221 266.4169  93.6534 15.02523434131062
STARLINK-30255          
1 57606U 23119E   25354.15323323 -.00000042  00000+0  11949-4 0  9995
2 57606  43.0027 153.6096 0001260 269.0289  91.0409 15.02534413131126
STARLINK-30252          
1 57607U 23119F   25353.45778711 -.00000658  00000+0 -33657-4 0  9997
2 57607  43.0023 145.1118 0001521 259.7407 100.3264 15.02535897131166
STARLINK-30258          
1 57608U 23119G   25353.77101102  .00000613  00000+0  60425-4 0  9999
2 57608  43.0021 155.9004 0001061 264.2548  95.8173 15.02537702131067
STARLINK-30174          
1 57609U 23119H   25354.16211767  .00000450  00000+0  48366-4 0  9992
2 57609  43.0024 153.6734 0001197 247.5269 112.5446 15.02544116131124
STARLINK-30248          
1 57610U 23119J   25353.76657558  .00000373  00000+0  42679-4 0  9996
2 57610  43.0021 155.8698 0001164 261.1635  98.9076 15.02533646131064
STARLINK-30052          
1 57611U 23119K   25354.15878684 -.00000870  00000+0 -49363-4 0  9997
2 57611  42.9993 153.6472 0001387 270.9015  89.1668 15.02529442131107
STARLINK-30245          
1 57612U 23119L   25353.82306432 -.00000301  00000+0 -72171-5 0  9991
2 57612  43.0039 155.4315 0001139 276.0931  83.9781 15.02535715131070
STARLINK-30041          
1 57613U 23119M   25354.15212056 -.00000337  00000+0 -99076-5 0  9999
2 57613  43.0022 153.5971 0001123 271.8014  88.2700 15.02531448131122
STARLINK-30244          
1 57614U 23119N   25353.81640353 -.00000294  00000+0 -66842-5 0  9994
2 57614  43.0033 155.3838 0001313 259.8698 100.1996 15.02532110131074
STARLINK-30246          
1 57615U 23119P   25354.14546094 -.00000834  00000+0 -46684-4 0  9990
2 57615  43.0027 153.5355 0001321 264.6584  95.4107 15.02536612131126
STARLINK-30075          
1 57616U 23119Q   25353.87633763 -.00000338  00000+0 -99596-5 0  9990
2 57616  43.0023 155.8345 0001356 267.2793  92.7894 15.02534840131074
STARLINK-30148          
1 57617U 23119R   25354.13891908  .00000013  00000+0  16063-4 0  9993
2 57617  43.0031 154.3655 0001612 261.7425  98.3234 15.02533674131117
STARLINK-30249          
1 57618U 23119S   25353.80320241  .00000062  00000+0  19652-4 0  9995
2 57618  43.0023 156.1414 0001176 268.3639  91.7068 15.02534157131060
STARLINK-30141          
1 57620U 23119U   25353.79099188 -.00000276  00000+0 -53479-5 0  9994
2 57620  43.0030 156.0535 0001184 261.7462  98.3246 15.02537458131062
STARLINK-30150          
1 57621U 23119V   25353.85967681  .00001260  00000+0  10829-3 0  9996
2 57621  43.0028 155.7100 0001234 266.7535  93.3167 15.02546451131077
STARLINK-30056          
1 57622U 23119W   25353.78988089  .00000973  00000+0  87071-4 0  9998
2 57622  43.0024 156.0153 0001070 262.2862  97.7859 15.02546673131069
STARLINK-30100          
1 57623U 23119X   25353.52064169  .00000227  00000+0  31897-4 0  9992
2 57623  43.0017 157.4622 0001159 250.7989 109.2727 15.02535191131020
LUDI TANCE-4 01A        
1 57624U 23120A   25353.57048736 -.00000144  00000+0  00000+0 0  9998
2 57624  15.2291 198.4103 0006347  83.7716 101.4104  1.00271795  8746
HEAD-3A                 
1 57626U 23121A   25354.27388300  .00000508  00000+0  13696-3 0  9995
2 57626  45.0010 111.2538 0005756  75.3889 284.7606 14.60272119125422
HEAD-3B                 
1 57627U 23121B   25354.26093852  .00000575  00000+0  14786-3 0  9995
2 57627  45.0021 105.7659 0004289  63.0720 297.0575 14.61166108125495
HEAD-3C                 
1 57628U 23121C   25354.29893155  .00000630  00000+0  15677-3 0  9995
2 57628  44.9992 101.0107 0004687  61.0467 299.0860 14.61835623125557
HEAD-3D                 
1 57629U 23121D   25354.27087620  .00000682  00000+0  16477-3 0  9992
2 57629  45.0036  97.3135 0005839  55.3499 304.7908 14.62493755125608
HEAD-3E                 
1 57630U 23121E   25354.27262089  .00000767  00000+0  17806-3 0  9999
2 57630  45.0015  91.6705 0006194  43.3463 316.7881 14.63410322125670
STARLINK-30309          
1 57632U 23122A   25353.49382124  .00000293  00000+0  36801-4 0  9999
2 57632  43.0042 170.7947 0001826 284.0095  76.0544 15.02529342130113
STARLINK-30306          
1 57633U 23122B   25353.88936922 -.00001169  00000+0 -71529-4 0  9995
2 57633  43.0022 168.6052 0001315 261.4717  98.5976 15.02522312130172
STARLINK-30323          
1 57634U 23122C   25354.14989778 -.00000858  00000+0 -48477-4 0  9993
2 57634  43.0026 153.5328 0001265 264.0726  95.9972 15.02532933130378
STARLINK-30329          
1 57635U 23122D   25354.21841981 -.00000327  00000+0 -91141-5 0  9993
2 57635  43.0013 166.7743 0001257 254.0200 106.0504 15.02535321130222
STARLINK-30330          
1 57636U 23122E   25353.55030399 -.00005549  00000+0 -39587-3 0  9998
2 57636  43.0053 170.3575 0002032 255.7608 104.3009 15.02548217130121
STARLINK-30311          
1 57637U 23122F   25354.20842621 -.00000815  00000+0 -45254-4 0  9991
2 57637  43.0029 166.6961 0001388 263.6211  96.4473 15.02536628130223
STARLINK-30328          
1 57638U 23122G   25354.15654730 -.00000100  00000+0  76507-5 0  9990
2 57638  43.0023 153.5220 0001154 264.7535  95.3176 15.02534145130380
STARLINK-30326          
1 57639U 23122H   25353.83940588  .00000053  00000+0  18990-4 0  9991
2 57639  43.0020 168.2191 0001258 251.0277 109.0429 15.02534738130174
STARLINK-30324          
1 57640U 23122J   25353.80288736 -.00000956  00000+0 -55711-4 0  9996
2 57640  43.0018 168.8149 0001217 275.1431  84.9272 15.02527175130169
STARLINK-30312          
1 57641U 23122K   25353.53366661 -.00000946  00000+0 -54996-4 0  9994
2 57641  43.0041 170.2394 0001579 258.8138 101.2527 15.02530099130129
STARLINK-30263          
1 57642U 23122L   25352.92870000 -.00000184  00000+0  14764-5 0  9997
2 57642  43.0016 173.4375 0001087 259.8510 100.2209 15.02536945130037
